[{"OBJECT_NAME":"WILDFIRE 2","OBJECT_ID":"2023-133L","EPOCH":"2026-03-09T19:22:31.583136","MEAN_MOTION":13.8518725,"ECCENTRICITY":0.00045046,"INCLINATION":80.993,"RA_OF_ASC_NODE":102.8595,"ARG_OF_PERICENTER":298.2911,"MEAN_ANOMALY":61.779,"EPHEMERIS_TYPE":0,"CLASSIFICATION_TYPE":"U","NORAD_CAT_ID":57767,"ELEMENT_SET_NO":999,"REV_AT_EPOCH":12724,"BSTAR":6.4756906e-5,"MEAN_MOTION_DOT":8.4e-7,"MEAN_MOTION_DDOT":0},{"OBJECT_NAME":"SDA_1673","OBJECT_ID":"2025-230K","EPOCH":"2026-03-09T17:15:35.607168","MEAN_MOTION":13.85421507,"ECCENTRICITY":0.00025222,"INCLINATION":81.3013,"RA_OF_ASC_NODE":303.8171,"ARG_OF_PERICENTER":101.7636,"MEAN_ANOMALY":258.3805,"EPHEMERIS_TYPE":0,"CLASSIFICATION_TYPE":"U","NORAD_CAT_ID":65983,"ELEMENT_SET_NO":999,"REV_AT_EPOCH":2005,"BSTAR":-0.017090367,"MEAN_MOTION_DOT":-0.00019388,"MEAN_MOTION_DDOT":0}]
